start=new Date('2022-04-09T00:00:00.000Z').valueOf();
sats=[{"PERIAPSIS":"538.844","OBJECT_ID":"2021-115E","NORAD_CAT_ID":"49728","INCLINATION":"53.2163","MEAN_MOTION_DOT":"0.00039787","MEAN_MOTION":"15.08817055","RA_OF_ASC_NODE":"102.1174","TIME_SYSTEM":"UTC","SITE":"AFETR","BSTAR":"0.00250550000000","MEAN_MOTION_DDOT":"0.0000000000000","APOAPSIS":"540.787","SEMIMAJOR_AXIS":"6917.951","OBJECT_TYPE":"PAYLOAD","RCS_SIZE":"LARGE","MEAN_ANOMALY":"315.9557","TLE_LINE1":"1 49728U 21115E   22098.91667824  .00039787  00000-0  25055-2 0  9997","TLE_LINE2":"2 49728  53.2163 102.1174 0001405  56.5458 315.9557 15.08817055  3582","REV_AT_EPOCH":"358","CLASSIFICATION_TYPE":"U","DECAY_DATE":null,"GP_ID":"200783654","LAUNCH_DATE":"2021-12-02","REF_FRAME":"TEME","OBJECT_NAME":"STARLINK-3240","ELEMENT_SET_NO":"999","EPHEMERIS_TYPE":"0","CENTER_NAME":"EARTH","ARG_OF_PERICENTER":"56.5458","PERIOD":"95.439","MEAN_ELEMENT_THEORY":"SGP4","ECCENTRICITY":"0.00014050","EPOCH":"2022-04-08T22:00:00.999936","COUNTRY_CODE":"US","FILE":"3393990"},{"ELEMENT_SET_NO":"999","EPHEMERIS_TYPE":"0","REF_FRAME":"TEME","OBJECT_NAME":"STARLINK-3251","ECCENTRICITY":"0.00024400","EPOCH":"2022-04-08T22:00:00.999936","COUNTRY_CODE":"US","FILE":"3393990","ARG_OF_PERICENTER":"37.2675","CENTER_NAME":"EARTH","PERIOD":"95.439","MEAN_ELEMENT_THEORY":"SGP4","TLE_LINE1":"1 49729U 21115F   22098.91667824  .00039955  00000-0  25158-2 0  9999","MEAN_ANOMALY":"315.1942","DECAY_DATE":null,"GP_ID":"200782402","LAUNCH_DATE":"2021-12-02","TLE_LINE2":"2 49729  53.2151 102.1162 0002440  37.2675 315.1942 15.08817647  3570","REV_AT_EPOCH":"357","CLASSIFICATION_TYPE":"U","BSTAR":"0.00251580000000","APOAPSIS":"541.502","MEAN_MOTION_DDOT":"0.0000000000000","SITE":"AFETR","SEMIMAJOR_AXIS":"6917.949","OBJECT_TYPE":"PAYLOAD","RCS_SIZE":"LARGE","OBJECT_ID":"2021-115F","PERIAPSIS":"538.126","MEAN_MOTION":"15.08817647","RA_OF_ASC_NODE":"102.1162","TIME_SYSTEM":"UTC","NORAD_CAT_ID":"49729","INCLINATION":"53.2151","MEAN_MOTION_DOT":"0.00039955"},{"PERIAPSIS":"538.309","OBJECT_ID":"2021-115G","NORAD_CAT_ID":"49730","INCLINATION":"53.2137","MEAN_MOTION_DOT":"0.00037010","MEAN_MOTION":"15.08814424","RA_OF_ASC_NODE":"102.1143","TIME_SYSTEM":"UTC","SITE":"AFETR","BSTAR":"0.00233290000000","MEAN_MOTION_DDOT":"0.0000000000000","APOAPSIS":"541.339","SEMIMAJOR_AXIS":"6917.959","OBJECT_TYPE":"PAYLOAD","RCS_SIZE":"LARGE","MEAN_ANOMALY":"272.4557","TLE_LINE1":"1 49730U 21115G   22098.91667824  .00037010  00000-0  23329-2 0  9999","REV_AT_EPOCH":"357","TLE_LINE2":"2 49730  53.2137 102.1143 0002190  40.0110 272.4557 15.08814424  3570","CLASSIFICATION_TYPE":"U","DECAY_DATE":null,"GP_ID":"200783152","LAUNCH_DATE":"2021-12-02","REF_FRAME":"TEME","OBJECT_NAME":"STARLINK-3249","ELEMENT_SET_NO":"999","EPHEMERIS_TYPE":"0","ARG_OF_PERICENTER":"40.0110","CENTER_NAME":"EARTH","PERIOD":"95.439","MEAN_ELEMENT_THEORY":"SGP4","ECCENTRICITY":"0.00021900","EPOCH":"2022-04-08T22:00:00.999936","FILE":"3393990","COUNTRY_CODE":"US"},{"PERIAPSIS":"538.251","OBJECT_ID":"2021-115H","NORAD_CAT_ID":"49731","INCLINATION":"53.2157","MEAN_MOTION_DOT":"0.00039900","MEAN_MOTION":"15.08822316","RA_OF_ASC_NODE":"102.1208","TIME_SYSTEM":"UTC","SITE":"AFETR","BSTAR":"0.00251210000000","APOAPSIS":"541.348","MEAN_MOTION_DDOT":"0.0000000000000","SEMIMAJOR_AXIS":"6917.934","OBJECT_TYPE":"PAYLOAD","RCS_SIZE":"LARGE","MEAN_ANOMALY":"288.6645","TLE_LINE1":"1 49731U 21115H   22098.91667824  .00039900  00000-0  25121-2 0  9992","TLE_LINE2":"2 49731  53.2157 102.1208 0002239  43.8014 288.6645 15.08822316  3579","REV_AT_EPOCH":"357","CLASSIFICATION_TYPE":"U","DECAY_DATE":null,"GP_ID":"200783404","LAUNCH_DATE":"2021-12-02","REF_FRAME":"TEME","OBJECT_NAME":"STARLINK-3228","ELEMENT_SET_NO":"999","EPHEMERIS_TYPE":"0","CENTER_NAME":"EARTH","ARG_OF_PERICENTER":"43.8014","PERIOD":"95.439","MEAN_ELEMENT_THEORY":"SGP4","ECCENTRICITY":"0.00022390","EPOCH":"2022-04-08T22:00:00.999936","FILE":"3393990","COUNTRY_CODE":"US"},{"ELEMENT_SET_NO":"999","EPHEMERIS_TYPE":"0","REF_FRAME":"TEME","OBJECT_NAME":"STARLINK-3246","ECCENTRICITY":"0.00017900","EPOCH":"2022-04-08T22:00:00.999936","FILE":"3393990","COUNTRY_CODE":"US","CENTER_NAME":"EARTH","ARG_OF_PERICENTER":"46.4637","PERIOD":"95.438","MEAN_ELEMENT_THEORY":"SGP4","TLE_LINE1":"1 49732U 21115J   22098.91667824  .00038717  00000-0  24383-2 0  9997","MEAN_ANOMALY":"206.0074","DECAY_DATE":null,"GP_ID":"200784154","LAUNCH_DATE":"2021-12-02","REV_AT_EPOCH":"357","TLE_LINE2":"2 49732  53.2109 102.1221 0001790  46.4637 206.0074 15.08826297  3575","CLASSIFICATION_TYPE":"U","BSTAR":"0.00243830000000","APOAPSIS":"541.026","MEAN_MOTION_DDOT":"0.0000000000000","SITE":"AFETR","SEMIMAJOR_AXIS":"6917.922","OBJECT_TYPE":"PAYLOAD","RCS_SIZE":"LARGE","OBJECT_ID":"2021-115J","PERIAPSIS":"538.549","MEAN_MOTION":"15.08826297","RA_OF_ASC_NODE":"102.1221","TIME_SYSTEM":"UTC","NORAD_CAT_ID":"49732","INCLINATION":"53.2109","MEAN_MOTION_DOT":"0.00038717"},{"OBJECT_NAME":"STARLINK-3252","REF_FRAME":"TEME","EPHEMERIS_TYPE":"0","ELEMENT_SET_NO":"999","MEAN_ELEMENT_THEORY":"SGP4","PERIOD":"95.439","ARG_OF_PERICENTER":"37.3031","CENTER_NAME":"EARTH","COUNTRY_CODE":"US","FILE":"3393990","EPOCH":"2022-04-08T22:00:00.999936","ECCENTRICITY":"0.00020710","MEAN_ANOMALY":"255.1748","TLE_LINE1":"1 49733U 21115K   22098.91667824  .00042358  00000-0  26655-2 0  9998","CLASSIFICATION_TYPE":"U","TLE_LINE2":"2 49733  53.2124 102.1224 0002071  37.3031 255.1748 15.08812736  3572","REV_AT_EPOCH":"357","LAUNCH_DATE":"2021-12-02","DECAY_DATE":null,"GP_ID":"200782902","SITE":"AFETR","APOAPSIS":"541.261","MEAN_MOTION_DDOT":"0.0000000000000","BSTAR":"0.00266550000000","RCS_SIZE":"LARGE","OBJECT_TYPE":"PAYLOAD","SEMIMAJOR_AXIS":"6917.964","PERIAPSIS":"538.396","OBJECT_ID":"2021-115K","MEAN_MOTION_DOT":"0.00042358","INCLINATION":"53.2124","NORAD_CAT_ID":"49733","TIME_SYSTEM":"UTC","RA_OF_ASC_NODE":"102.1224","MEAN_MOTION":"15.08812736"},{"SITE":"AFETR","BSTAR":"0.00203070000000","APOAPSIS":"541.164","MEAN_MOTION_DDOT":"0.0000000000000","OBJECT_TYPE":"PAYLOAD","SEMIMAJOR_AXIS":"6917.937","RCS_SIZE":"LARGE","PERIAPSIS":"538.440","OBJECT_ID":"2021-115L","NORAD_CAT_ID":"49734","MEAN_MOTION_DOT":"0.00032162","INCLINATION":"53.2176","MEAN_MOTION":"15.08821596","RA_OF_ASC_NODE":"92.0966","TIME_SYSTEM":"UTC","REF_FRAME":"TEME","OBJECT_NAME":"STARLINK-3238","ELEMENT_SET_NO":"999","EPHEMERIS_TYPE":"0","ARG_OF_PERICENTER":"44.3298","CENTER_NAME":"EARTH","MEAN_ELEMENT_THEORY":"SGP4","PERIOD":"95.439","EPOCH":"2022-04-08T22:00:00.999936","ECCENTRICITY":"0.00019690","FILE":"3393990","COUNTRY_CODE":"US","MEAN_ANOMALY":"143.1466","TLE_LINE1":"1 49734U 21115L   22098.91667824  .00032162  00000-0  20307-2 0  9999","TLE_LINE2":"2 49734  53.2176  92.0966 0001969  44.3298 143.1466 15.08821596  3575","REV_AT_EPOCH":"357","CLASSIFICATION_TYPE":"U","DECAY_DATE":null,"GP_ID":"200782653","LAUNCH_DATE":"2021-12-02"},{"TLE_LINE1":"1 49735U 21115M   22098.91667824  .00006717  00000-0  43969-3 0  9997","MEAN_ANOMALY":"232.0201","GP_ID":"200783904","DECAY_DATE":null,"LAUNCH_DATE":"2021-12-02","REV_AT_EPOCH":"365","TLE_LINE2":"2 49735  53.2126 102.1161 0002213  40.4460 232.0201 15.08841278  3655","CLASSIFICATION_TYPE":"U","ELEMENT_SET_NO":"999","EPHEMERIS_TYPE":"0","REF_FRAME":"TEME","OBJECT_NAME":"STARLINK-3113","ECCENTRICITY":"0.00022130","EPOCH":"2022-04-08T22:00:00.999936","FILE":"3393990","COUNTRY_CODE":"US","ARG_OF_PERICENTER":"40.4460","CENTER_NAME":"EARTH","PERIOD":"95.437","MEAN_ELEMENT_THEORY":"SGP4","OBJECT_ID":"2021-115M","PERIAPSIS":"538.211","RA_OF_ASC_NODE":"102.1161","MEAN_MOTION":"15.08841278","TIME_SYSTEM":"UTC","NORAD_CAT_ID":"49735","INCLINATION":"53.2126","MEAN_MOTION_DOT":"0.00006717","BSTAR":"0.00043969000000","APOAPSIS":"541.272","MEAN_MOTION_DDOT":"0.0000000000000","SITE":"AFETR","SEMIMAJOR_AXIS":"6917.876","OBJECT_TYPE":"PAYLOAD","RCS_SIZE":"LARGE"},{"COUNTRY_CODE":"US","FILE":"3393990","ECCENTRICITY":"0.00022520","EPOCH":"2022-04-08T22:00:00.999936","PERIOD":"95.438","MEAN_ELEMENT_THEORY":"SGP4","ARG_OF_PERICENTER":"35.1771","CENTER_NAME":"EARTH","EPHEMERIS_TYPE":"0","ELEMENT_SET_NO":"999","OBJECT_NAME":"STARLINK-3148","REF_FRAME":"TEME","LAUNCH_DATE":"2021-12-02","DECAY_DATE":null,"GP_ID":"200783655","CLASSIFICATION_TYPE":"U","REV_AT_EPOCH":"357","TLE_LINE2":"2 49736  53.2168  92.0966 0002252  35.1771 112.2987 15.08828872  3577","TLE_LINE1":"1 49736U 21115N   22098.91667824  .00020488  00000-0  13020-2 0  9993","MEAN_ANOMALY":"112.2987","RCS_SIZE":"LARGE","SEMIMAJOR_AXIS":"6917.914","OBJECT_TYPE":"PAYLOAD","APOAPSIS":"541.337","MEAN_MOTION_DDOT":"0.0000000000000","BSTAR":"0.00130200000000","SITE":"AFETR","TIME_SYSTEM":"UTC","MEAN_MOTION":"15.08828872","RA_OF_ASC_NODE":"92.0966","INCLINATION":"53.2168","MEAN_MOTION_DOT":"0.00020488","NORAD_CAT_ID":"49736","OBJECT_ID":"2021-115N","PERIAPSIS":"538.221"},{"PERIAPSIS":"538.405","OBJECT_ID":"2021-115P","INCLINATION":"53.2187","MEAN_MOTION_DOT":"0.00030705","NORAD_CAT_ID":"49737","TIME_SYSTEM":"UTC","MEAN_MOTION":"15.08819681","RA_OF_ASC_NODE":"92.1019","SITE":"AFETR","APOAPSIS":"541.210","MEAN_MOTION_DDOT":"0.0000000000000","BSTAR":"0.00194000000000","RCS_SIZE":"LARGE","SEMIMAJOR_AXIS":"6917.942","OBJECT_TYPE":"PAYLOAD","MEAN_ANOMALY":"131.1780","TLE_LINE1":"1 49737U 21115P   22098.91667824  .00030705  00000-0  19400-2 0  9995","CLASSIFICATION_TYPE":"U","REV_AT_EPOCH":"357","TLE_LINE2":"2 49737  53.2187  92.1019 0002027  36.2993 131.1780 15.08819681  3576","LAUNCH_DATE":"2021-12-02","DECAY_DATE":null,"GP_ID":"200782403","OBJECT_NAME":"STARLINK-3225","REF_FRAME":"TEME","EPHEMERIS_TYPE":"0","ELEMENT_SET_NO":"999","PERIOD":"95.439","MEAN_ELEMENT_THEORY":"SGP4","CENTER_NAME":"EARTH","ARG_OF_PERICENTER":"36.2993","FILE":"3393990","COUNTRY_CODE":"US","ECCENTRICITY":"0.00020270","EPOCH":"2022-04-08T22:00:00.999936"}];
